[{"OBJECT_NAME":"IRIDIUM 102","OBJECT_ID":"2017-003D","EPOCH":"2026-03-09T16:58:10.285536","MEAN_MOTION":14.3421763,"ECCENTRICITY":0.00022591,"INCLINATION":86.3971,"RA_OF_ASC_NODE":130.0382,"ARG_OF_PERICENTER":95.9369,"MEAN_ANOMALY":264.2084,"EPHEMERIS_TYPE":0,"CLASSIFICATION_TYPE":"U","NORAD_CAT_ID":41920,"ELEMENT_SET_NO":999,"REV_AT_EPOCH":47902,"BSTAR":3.634738e-6,"MEAN_MOTION_DOT":3.0e-7,"MEAN_MOTION_DDOT":0},{"OBJECT_NAME":"COSMOS 1371","OBJECT_ID":"1982-051A","EPOCH":"2026-03-09T23:31:22.309248","MEAN_MOTION":14.3258593,"ECCENTRICITY":0.00135909,"INCLINATION":74.0413,"RA_OF_ASC_NODE":68.5085,"ARG_OF_PERICENTER":201.3611,"MEAN_ANOMALY":158.6975,"EPHEMERIS_TYPE":0,"CLASSIFICATION_TYPE":"U","NORAD_CAT_ID":13241,"ELEMENT_SET_NO":999,"REV_AT_EPOCH":28524,"BSTAR":6.9966542e-5,"MEAN_MOTION_DOT":1.64e-6,"MEAN_MOTION_DDOT":0}]
